{
 "type": "FeatureCollection",
 "name": "Example: Central Texas native range",
 "features": [
  {
   "type": "Feature",
   "geometry": {
    "type": "Polygon",
    "coordinates": [
     [
      [
       -97.47,
       31.511502
      ],
      [
       -97.456625,
       31.511502
      ],
      [
       -97.456625,
       31.523005
      ],
      [
       -97.47,
       31.523005
      ],
      [
       -97.47,
       31.511502
      ]
     ]
    ]
   },
   "properties": {
    "name": "North",
    "land_use": "range",
    "acres": 400.72,
    "forage_source": "manual",
    "forage_lb_ac": 2500,
    "capacity_au": 26.4,
    "condition": "fair",
    "measured_lb_ac": null,
    "measured_month": null
   }
  },
  {
   "type": "Feature",
   "geometry": {
    "type": "Polygon",
    "coordinates": [
     [
      [
       -97.456625,
       31.511502
      ],
      [
       -97.44325,
       31.511502
      ],
      [
       -97.44325,
       31.523005
      ],
      [
       -97.456625,
       31.523005
      ],
      [
       -97.456625,
       31.511502
      ]
     ]
    ]
   },
   "properties": {
    "name": "East",
    "land_use": "range",
    "acres": 400.72,
    "forage_source": "manual",
    "forage_lb_ac": 2500,
    "capacity_au": 26.4,
    "condition": "fair",
    "measured_lb_ac": null,
    "measured_month": null
   }
  },
  {
   "type": "Feature",
   "geometry": {
    "type": "Polygon",
    "coordinates": [
     [
      [
       -97.456625,
       31.5
      ],
      [
       -97.44325,
       31.5
      ],
      [
       -97.44325,
       31.511502
      ],
      [
       -97.456625,
       31.511502
      ],
      [
       -97.456625,
       31.5
      ]
     ]
    ]
   },
   "properties": {
    "name": "South",
    "land_use": "range",
    "acres": 400.74,
    "forage_source": "manual",
    "forage_lb_ac": 2500,
    "capacity_au": 26.4,
    "condition": "fair",
    "measured_lb_ac": null,
    "measured_month": null
   }
  },
  {
   "type": "Feature",
   "geometry": {
    "type": "Polygon",
    "coordinates": [
     [
      [
       -97.47,
       31.5
      ],
      [
       -97.456625,
       31.5
      ],
      [
       -97.456625,
       31.511502
      ],
      [
       -97.47,
       31.511502
      ],
      [
       -97.47,
       31.5
      ]
     ]
    ]
   },
   "properties": {
    "name": "West",
    "land_use": "range",
    "acres": 400.74,
    "forage_source": "manual",
    "forage_lb_ac": 2500,
    "capacity_au": 26.4,
    "condition": "fair",
    "measured_lb_ac": null,
    "measured_month": null
   }
  },
  {
   "type": "Feature",
   "geometry": {
    "type": "Point",
    "coordinates": [
     -97.456625,
     31.511502
    ]
   },
   "properties": {
    "name": "Center tank",
    "point_type": "water"
   }
  },
  {
   "type": "Feature",
   "geometry": {
    "type": "Point",
    "coordinates": [
     -97.468,
     31.502
    ]
   },
   "properties": {
    "name": "Pens",
    "point_type": "pen"
   }
  }
 ],
 "my_ranch": {
  "version": 1,
  "name": "Example: Central Texas native range",
  "herd": {
   "cows": 80,
   "cowLb": 1200,
   "bulls": null,
   "bullLb": 1800,
   "breed": "angus",
   "milk": "moderate",
   "bcs": 5,
   "activity": "rolling",
   "calving": "one",
   "start1": "02-01",
   "len1": 60,
   "start2": "09-15",
   "len2": 60,
   "share2": 30,
   "weanAge": 205,
   "wean1": "10-01",
   "wean2": "04-15",
   "weanLb": 560,
   "weanPeriod": 0,
   "postAdg": 1.3,
   "calvingRate": 91,
   "calfLoss": 6.4,
   "cowLoss": 1.5,
   "region": "ce",
   "nws": "no",
   "nwsLoss": 2,
   "nwsCost": 15,
   "hornFly": 0,
   "weatherAdj": "on",
   "windMph": 10,
   "coat": 1,
   "heat": 1,
   "replRate": 0,
   "heiferPreg": 85,
   "bcsWean": 0,
   "seasonal": "off",
   "supMode": "protein",
   "calfShort": "creep",
   "creepPrice": 350,
   "creepConv": 8,
   "hayTdn": 55,
   "hayCp": 10,
   "hayDm": 88,
   "hayPrice": 200,
   "mineralOz": 4,
   "mineralPrice": 0.45,
   "source": "cube20",
   "supCp": 20,
   "supTdn": 70,
   "supPrice": 392,
   "supTrips": 3,
   "hayTrips": 2,
   "tripCost": 25,
   "distPerTon": 0,
   "dr": {
    "cut": 50,
    "from": 5,
    "months": 6,
    "which": "all",
    "earlyAge": 150,
    "feedAdg": 2,
    "sellPct": 30,
    "sellWhen": "start",
    "hayPrice": null,
    "recover": 75,
    "buyPrice": null,
    "buyYear": 1,
    "otherCost": 189,
    "devCost": 900,
    "rate": 7,
    "later": 0
   },
   "sell": {
    "rate": 8,
    "death": 0.5
   }
  },
  "herdNow": null,
  "settings": {
   "harvestEff": 25,
   "intakeLb": 26,
   "manualCap": null,
   "maxGraze": 30,
   "cond": {
    "poor": 50,
    "fair": 75,
    "excellent": 90
   },
   "zoneF": {
    "brush": 25,
    "bottom": 200
   }
  }
 }
}