{
 "type": "FeatureCollection",
 "name": "Example: Rolling Plains spring calving",
 "features": [
  {
   "type": "Feature",
   "geometry": {
    "type": "Polygon",
    "coordinates": [
     [
      [
       -100.458,
       35.515
      ],
      [
       -100.445943,
       35.515
      ],
      [
       -100.445943,
       35.54446
      ],
      [
       -100.458,
       35.54446
      ],
      [
       -100.458,
       35.515
      ]
     ]
    ]
   },
   "properties": {
    "name": "Creek",
    "land_use": "range",
    "acres": 883.18,
    "forage_source": "manual",
    "forage_lb_ac": 3200,
    "capacity_au": 74.5,
    "condition": "fair",
    "measured_lb_ac": null,
    "measured_month": null
   }
  },
  {
   "type": "Feature",
   "geometry": {
    "type": "Polygon",
    "coordinates": [
     [
      [
       -100.445943,
       35.515
      ],
      [
       -100.433887,
       35.515
      ],
      [
       -100.433887,
       35.54446
      ],
      [
       -100.445943,
       35.54446
      ],
      [
       -100.445943,
       35.515
      ]
     ]
    ]
   },
   "properties": {
    "name": "Middle",
    "land_use": "range",
    "acres": 883.11,
    "forage_source": "manual",
    "forage_lb_ac": 3200,
    "capacity_au": 74.4,
    "condition": "fair",
    "measured_lb_ac": null,
    "measured_month": null
   }
  },
  {
   "type": "Feature",
   "geometry": {
    "type": "Polygon",
    "coordinates": [
     [
      [
       -100.433887,
       35.515
      ],
      [
       -100.42183,
       35.515
      ],
      [
       -100.42183,
       35.54446
      ],
      [
       -100.433887,
       35.54446
      ],
      [
       -100.433887,
       35.515
      ]
     ]
    ]
   },
   "properties": {
    "name": "East",
    "land_use": "range",
    "acres": 883.18,
    "forage_source": "manual",
    "forage_lb_ac": 3200,
    "capacity_au": 74.5,
    "condition": "fair",
    "measured_lb_ac": null,
    "measured_month": null
   }
  },
  {
   "type": "Feature",
   "geometry": {
    "type": "Point",
    "coordinates": [
     -100.445943,
     35.53
    ]
   },
   "properties": {
    "name": "Windmill",
    "point_type": "water"
   }
  },
  {
   "type": "Feature",
   "geometry": {
    "type": "Point",
    "coordinates": [
     -100.433887,
     35.53
    ]
   },
   "properties": {
    "name": "Tank",
    "point_type": "water"
   }
  }
 ],
 "my_ranch": {
  "version": 1,
  "name": "Example: Rolling Plains spring calving",
  "herd": {
   "cows": 154,
   "cowLb": 1000,
   "bulls": null,
   "bullLb": 1800,
   "breed": "angus",
   "milk": "moderate",
   "bcs": 5,
   "activity": "rolling",
   "calving": "one",
   "start1": "04-01",
   "len1": 63,
   "start2": "09-15",
   "len2": 60,
   "share2": 30,
   "weanAge": 205,
   "wean1": "10-18",
   "wean2": "04-15",
   "weanLb": 426,
   "weanPeriod": 0,
   "postAdg": 1.5,
   "calvingRate": 87,
   "calfLoss": 1.5,
   "cowLoss": 2,
   "region": "rp",
   "nws": "no",
   "nwsLoss": 2,
   "nwsCost": 15,
   "hornFly": 0,
   "weatherAdj": "on",
   "windMph": 10,
   "coat": 1,
   "heat": 1,
   "replRate": 10,
   "heiferPreg": 85,
   "bcsWean": 0,
   "seasonal": "off",
   "supMode": "protein",
   "calfShort": "creep",
   "creepPrice": 350,
   "creepConv": 8,
   "hayTdn": 55,
   "hayCp": 10,
   "hayDm": 88,
   "hayPrice": 200,
   "mineralOz": 4,
   "mineralPrice": 0.45,
   "source": "cube38",
   "supCp": 38,
   "supTdn": 75,
   "supPrice": 392,
   "supTrips": 3,
   "hayTrips": 2,
   "tripCost": 25,
   "distPerTon": 0,
   "dr": {
    "cut": 50,
    "from": 5,
    "months": 6,
    "which": "all",
    "earlyAge": 150,
    "feedAdg": 2,
    "sellPct": 30,
    "sellWhen": "start",
    "hayPrice": null,
    "recover": 75,
    "buyPrice": null,
    "buyYear": 1,
    "otherCost": 189,
    "devCost": 900,
    "rate": 7,
    "later": 0
   },
   "sell": {
    "rate": 8,
    "death": 0.5
   }
  },
  "herdNow": null,
  "settings": {
   "harvestEff": 25,
   "intakeLb": 26,
   "manualCap": null,
   "maxGraze": 30,
   "cond": {
    "poor": 50,
    "fair": 75,
    "excellent": 90
   },
   "zoneF": {
    "brush": 25,
    "bottom": 200
   }
  }
 }
}